[
    {
        "CCSDS_OMM_VERS": "3.0",
        "COMMENT": "GENERATED VIA SPACE-TRACK.ORG API",
        "CREATION_DATE": "2025-05-02T17:35:09",
        "ORIGINATOR": "18 SPCS",
        "OBJECT_NAME": "GALILEO-PFM",
        "OBJECT_ID": "2011-060A",
        "CENTER_NAME": "EARTH",
        "REF_FRAME": "TEME",
        "TIME_SYSTEM": "UTC",
        "MEAN_ELEMENT_THEORY": "SGP4",
        "EPOCH": "2025-05-01T15:39:23.012352",
        "MEAN_MOTION": "1.70475716",
        "ECCENTRICITY": "0.00038850",
        "INCLINATION": "57.1003",
        "RA_OF_ASC_NODE": "352.9155",
        "ARG_OF_PERICENTER": "28.5198",
        "MEAN_ANOMALY": "331.5431",
        "EPHEMERIS_TYPE": "0",
        "CLASSIFICATION_TYPE": "U",
        "NORAD_CAT_ID": "37846",
        "ELEMENT_SET_NO": "999",
        "REV_AT_EPOCH": "8410",
        "BSTAR": "0.00000000000000",
        "MEAN_MOTION_DOT": "-0.00000098",
        "MEAN_MOTION_DDOT": "0.0000000000000",
        "SEMIMAJOR_AXIS": "29600.121",
        "PERIOD": "844.695",
        "APOAPSIS": "23233.486",
        "PERIAPSIS": "23210.487",
        "OBJECT_TYPE": "PAYLOAD",
        "RCS_SIZE": "LARGE",
        "COUNTRY_CODE": "ESA",
        "LAUNCH_DATE": "2011-10-21",
        "SITE": "FRGUI",
        "DECAY_DATE": null,
        "FILE": "4716995",
        "GP_ID": "286676886",
        "TLE_LINE0": "0 GALILEO-PFM",
        "TLE_LINE1": "1 37846U 11060A   25121.65234968 -.00000098  00000-0  00000-0 0  9998",
        "TLE_LINE2": "2 37846  57.1003 352.9155 0003885  28.5198 331.5431  1.70475716 84104"
    }
]